STARLINK-2702_new
1 18441C 21040P   21326.18038978 -.00007444  00000-0 -49858-3 0  3268
2 18441  53.0565  22.9218 0001239  71.7635 341.7949 15.06420326    12
STARLINK-2702_old
1 28441C 21040P   21325.12224561  .00006149  00000-0  41198-3 0  3253
2 28441  53.0562  27.6720 0001187  75.2253 356.8003 15.06394292    16
